[{"OBJECT_NAME":"STARLINK-30812","OBJECT_ID":"2023-166U","EPOCH":"2026-03-09T16:41:20.313600","MEAN_MOTION":15.30182889,"ECCENTRICITY":0.00015543,"INCLINATION":53.1599,"RA_OF_ASC_NODE":219.3426,"ARG_OF_PERICENTER":81.6762,"MEAN_ANOMALY":278.4415,"EPHEMERIS_TYPE":0,"CLASSIFICATION_TYPE":"U","NORAD_CAT_ID":58168,"ELEMENT_SET_NO":999,"REV_AT_EPOCH":13303,"BSTAR":5.1682527e-5,"MEAN_MOTION_DOT":1.171e-5,"MEAN_MOTION_DDOT":0},{"OBJECT_NAME":"OBJECT M","OBJECT_ID":"2025-155M","EPOCH":"2026-03-09T22:37:12.666144","MEAN_MOTION":15.33288683,"ECCENTRICITY":0.00088001,"INCLINATION":97.4429,"RA_OF_ASC_NODE":38.1052,"ARG_OF_PERICENTER":139.1253,"MEAN_ANOMALY":221.0651,"EPHEMERIS_TYPE":0,"CLASSIFICATION_TYPE":"U","NORAD_CAT_ID":64887,"ELEMENT_SET_NO":999,"REV_AT_EPOCH":6565,"BSTAR":0.00087834095,"MEAN_MOTION_DOT":0.00028279,"MEAN_MOTION_DDOT":0}]
